{"type": "FeatureCollection", "features": [ {"type": "Feature", "properties": {"norad_id": 34031, "name": "COSMOS 2251 DEB", "group": "cosmos-2251-debris", "lat": 21.60240498291456, "lon": -67.92450260338813, "alt_km": 690.8043640391897, "timestamp": "2025-12-21T16:47:55.132472+00:00", "meta": {"OBJECT_NAME": "COSMOS 2251 DEB", "OBJECT_ID": "1993-036HS", "EPOCH": "2025-12-21T09:45:25.698816", "MEAN_MOTION": 14.5977685, "ECCENTRICITY": 0.0022927, "INCLINATION": 74.0132, "RA_OF_ASC_NODE": 119.154, "ARG_OF_PERICENTER": 239.1097, "MEAN_ANOMALY": 177.3035, "EPHEMERIS_TYPE": 0, "CLASSIFICATION_TYPE": "U", "NORAD_CAT_ID": 34031, "ELEMENT_SET_NO": 999, "REV_AT_EPOCH": 88692, "BSTAR": 0.00094729, "MEAN_MOTION_DOT": 4.513e-05, "MEAN_MOTION_DDOT": 0}, "tle": {"line1": "1 34031U 93036HS  25355.40654744  .00004513  00000+0  94729-3 0  9992", "line2": "2 34031  74.0132 119.1540 0022927 239.1097 177.3035 14.59776850886925"}}, "geometry": {"type": "Point", "coordinates": [-67.92450260338813, 21.60240498291456]}}, {"type": "Feature", "properties": {"norad_id": 34035, "name": "COSMOS 2251 DEB", "group": "cosmos-2251-debris", "lat": 65.88142641134, "lon": 11.940404611985045, "alt_km": 717.4980831892408, "timestamp": "2025-12-21T16:47:55.132482+00:00", "meta": {"OBJECT_NAME": "COSMOS 2251 DEB", "OBJECT_ID": "1993-036HW", "EPOCH": "2025-12-20T16:27:56.877408", "MEAN_MOTION": 14.52033624, "ECCENTRICITY": 0.00451767, "INCLINATION": 74.0655, "RA_OF_ASC_NODE": 334.1941, "ARG_OF_PERICENTER": 334.1122, "MEAN_ANOMALY": 199.4071, "EPHEMERIS_TYPE": 0, "CLASSIFICATION_TYPE": "U", "NORAD_CAT_ID": 34035, "ELEMENT_SET_NO": 999, "REV_AT_EPOCH": 88081, "BSTAR": 0.0010888868, "MEAN_MOTION_DOT": 4.435e-05, "MEAN_MOTION_DDOT": 0}, "tle": {"line1": "1 34035U 93036HW  25354.68607497  .00004435  00000+0  10889-2 0  9995", "line2": "2 34035  74.0655 334.1941 0045176 334.1122 199.4071 14.52033624880814"}}, "geometry": {"type": "Point", "coordinates": [11.940404611985045, 65.88142641134]}}, {"type": "Feature", "properties": {"norad_id": 34036, "name": "COSMOS 2251 DEB", "group": "cosmos-2251-debris", "lat": -66.6447852802607, "lon": 89.59229121644559, "alt_km": 591.8178174927607, "timestamp": "2025-12-21T16:47:55.132493+00:00", "meta": {"OBJECT_NAME": "COSMOS 2251 DEB", "OBJECT_ID": "1993-036HX", "EPOCH": "2025-12-21T09:05:49.640064", "MEAN_MOTION": 14.95593428, "ECCENTRICITY": 0.0010686, "INCLINATION": 74.0196, "RA_OF_ASC_NODE": 131.8191, "ARG_OF_PERICENTER": 161.0492, "MEAN_ANOMALY": 199.1092, "EPHEMERIS_TYPE": 0, "CLASSIFICATION_TYPE": "U", "NORAD_CAT_ID": 34036, "ELEMENT_SET_NO": 999, "REV_AT_EPOCH": 88699, "BSTAR": 0.003071, "MEAN_MOTION_DOT": 0.00034269, "MEAN_MOTION_DDOT": 0}, "tle": {"line1": "1 34036U 93036HX  25355.37904676  .00034269  00000+0  30710-2 0  9995", "line2": "2 34036  74.0196 131.8191 0010686 161.0492 199.1092 14.95593428886994"}}, "geometry": {"type": "Point", "coordinates": [89.59229121644559, -66.6447852802607]}}, {"type": "Feature", "properties": {"norad_id": 34037, "name": "COSMOS 2251 DEB", "group": "cosmos-2251-debris", "lat": -12.640112306744566, "lon": -142.2796976382447, "alt_km": 793.7905031466862, "timestamp": "2025-12-21T16:47:55.132503+00:00", "meta": {"OBJECT_NAME": "COSMOS 2251 DEB", "OBJECT_ID": "1993-036HY", "EPOCH": "2025-12-21T09:12:46.973664", "MEAN_MOTION": 14.34685455, "ECCENTRICITY": 0.0051807, "INCLINATION": 74.0511, "RA_OF_ASC_NODE": 34.6216, "ARG_OF_PERICENTER": 81.9315, "MEAN_ANOMALY": 278.7711, "EPHEMERIS_TYPE": 0, "CLASSIFICATION_TYPE": "U", "NORAD_CAT_ID": 34037, "ELEMENT_SET_NO": 999, "REV_AT_EPOCH": 87841, "BSTAR": 0.00033945, "MEAN_MOTION_DOT": 9.5e-06, "MEAN_MOTION_DDOT": 0}, "tle": {"line1": "1 34037U 93036HY  25355.38387701  .00000950  00000+0  33945-3 0  9995", "line2": "2 34037  74.0511  34.6216 0051807  81.9315 278.7711 14.34685455878413"}}, "geometry": {"type": "Point", "coordinates": [-142.2796976382447, -12.640112306744566]}}, {"type": "Feature", "properties": {"norad_id": 34040, "name": "COSMOS 2251 DEB", "group": "cosmos-2251-debris", "lat": 64.74164475945909, "lon": -166.52509506994963, "alt_km": 1065.3134989312448, "timestamp": "2025-12-21T16:47:55.132513+00:00", "meta": {"OBJECT_NAME": "COSMOS 2251 DEB", "OBJECT_ID": "1993-036JB", "EPOCH": "2025-12-21T11:01:12.652608", "MEAN_MOTION": 13.68387748, "ECCENTRICITY": 0.0343335, "INCLINATION": 73.9556, "RA_OF_ASC_NODE": 51.4553, "ARG_OF_PERICENTER": 3.0503, "MEAN_ANOMALY": 357.2594, "EPHEMERIS_TYPE": 0, "CLASSIFICATION_TYPE": "U", "NORAD_CAT_ID": 34040, "ELEMENT_SET_NO": 999, "REV_AT_EPOCH": 83719, "BSTAR": 0.00059105, "MEAN_MOTION_DOT": 7.4e-06, "MEAN_MOTION_DDOT": 0}, "tle": {"line1": "1 34040U 93036JB  25355.45917422  .00000740  00000+0  59105-3 0  9999", "line2": "2 34040  73.9556  51.4553 0343335   3.0503 357.2594 13.68387748837191"}}, "geometry": {"type": "Point", "coordinates": [-166.52509506994963, 64.74164475945909]}}, {"type": "Feature", "properties": {"norad_id": 34045, "name": "COSMOS 2251 DEB", "group": "cosmos-2251-debris", "lat": -35.904056187256614, "lon": 126.39476177049194, "alt_km": 801.3424625561674, "timestamp": "2025-12-21T16:47:55.132524+00:00", "meta": {"OBJECT_NAME": "COSMOS 2251 DEB", "OBJECT_ID": "1993-036JG", "EPOCH": "2025-12-21T06:04:11.257248", "MEAN_MOTION": 14.34073261, "ECCENTRICITY": 0.0026018, "INCLINATION": 74.0396, "RA_OF_ASC_NODE": 295.2545, "ARG_OF_PERICENTER": 16.3764, "MEAN_ANOMALY": 54.2585, "EPHEMERIS_TYPE": 0, "CLASSIFICATION_TYPE": "U", "NORAD_CAT_ID": 34045, "ELEMENT_SET_NO": 999, "REV_AT_EPOCH": 88155, "BSTAR": 7.9991e-05, "MEAN_MOTION_DOT": 1.98e-06, "MEAN_MOTION_DDOT": 0}, "tle": {"line1": "1 34045U 93036JG  25355.25290807  .00000198  00000+0  79991-4 0  9996", "line2": "2 34045  74.0396 295.2545 0026018  16.3764  54.2585 14.34073261881550"}}, "geometry": {"type": "Point", "coordinates": [126.39476177049194, -35.904056187256614]}}, {"type": "Feature", "properties": {"norad_id": 34046, "name": "COSMOS 2251 DEB", "group": "cosmos-2251-debris", "lat": -62.57082561188297, "lon": -152.7906471912019, "alt_km": 796.371438536994, "timestamp": "2025-12-21T16:47:55.132534+00:00", "meta": {"OBJECT_NAME": "COSMOS 2251 DEB", "OBJECT_ID": "1993-036JH", "EPOCH": "2025-12-20T01:44:37.329792", "MEAN_MOTION": 14.46526924, "ECCENTRICITY": 0.00744564, "INCLINATION": 74.0389, "RA_OF_ASC_NODE": 356.7805, "ARG_OF_PERICENTER": 78.006, "MEAN_ANOMALY": 338.5486, "EPHEMERIS_TYPE": 0, "CLASSIFICATION_TYPE": "U", "NORAD_CAT_ID": 34046, "ELEMENT_SET_NO": 999, "REV_AT_EPOCH": 87932, "BSTAR": 0.00078666467, "MEAN_MOTION_DOT": 2.906e-05, "MEAN_MOTION_DDOT": 0}, "tle": {"line1": "1 34046U 93036JH  25354.07265428  .00002906  00000+0  78666-3 0  9993", "line2": "2 34046  74.0389 356.7805 0074456  78.0060 338.5486 14.46526924879320"}}, "geometry": {"type": "Point", "coordinates": [-152.7906471912019, -62.57082561188297]}}, {"type": "Feature", "properties": {"norad_id": 34050, "name": "COSMOS 2251 DEB", "group": "cosmos-2251-debris", "lat": -56.90192077549934, "lon": -31.26974918964549, "alt_km": 982.6235354207847, "timestamp": "2025-12-21T16:47:55.132544+00:00", "meta": {"OBJECT_NAME": "COSMOS 2251 DEB", "OBJECT_ID": "1993-036JM", "EPOCH": "2025-12-21T06:52:34.412160", "MEAN_MOTION": 13.96199106, "ECCENTRICITY": 0.0214703, "INCLINATION": 74.0882, "RA_OF_ASC_NODE": 355.3911, "ARG_OF_PERICENTER": 57.5144, "MEAN_ANOMALY": 326.9126, "EPHEMERIS_TYPE": 0, "CLASSIFICATION_TYPE": "U", "NORAD_CAT_ID": 34050, "ELEMENT_SET_NO": 999, "REV_AT_EPOCH": 85551, "BSTAR": 0.00060759, "MEAN_MOTION_DOT": 9.92e-06, "MEAN_MOTION_DDOT": 0}, "tle": {"line1": "1 34050U 93036JM  25355.28650940  .00000992  00000+0  60759-3 0  9996", "line2": "2 34050  74.0882 355.3911 0214703  57.5144 326.9126 13.96199106855511"}}, "geometry": {"type": "Point", "coordinates": [-31.26974918964549, -56.90192077549934]}}, {"type": "Feature", "properties": {"norad_id": 34053, "name": "COSMOS 2251 DEB", "group": "cosmos-2251-debris", "lat": -18.1900022637656, "lon": 53.1989647078409, "alt_km": 1394.077686101119, "timestamp": "2025-12-21T16:47:55.132554+00:00", "meta": {"OBJECT_NAME": "COSMOS 2251 DEB", "OBJECT_ID": "1993-036JQ", "EPOCH": "2025-12-20T16:41:14.361504", "MEAN_MOTION": 13.49172922, "ECCENTRICITY": 0.04226751, "INCLINATION": 73.8433, "RA_OF_ASC_NODE": 229.3517, "ARG_OF_PERICENTER": 16.5958, "MEAN_ANOMALY": 344.8501, "EPHEMERIS_TYPE": 0, "CLASSIFICATION_TYPE": "U", "NORAD_CAT_ID": 34053, "ELEMENT_SET_NO": 999, "REV_AT_EPOCH": 82791, "BSTAR": 0.00050236834, "MEAN_MOTION_DOT": 5.27e-06, "MEAN_MOTION_DDOT": 0}, "tle": {"line1": "1 34053U 93036JQ  25354.69530511  .00000527  00000+0  50237-3 0  9998", "line2": "2 34053  73.8433 229.3517 0422675  16.5958 344.8501 13.49172922827916"}}, "geometry": {"type": "Point", "coordinates": [53.1989647078409, -18.1900022637656]}}, {"type": "Feature", "properties": {"norad_id": 34056, "name": "COSMOS 2251 DEB", "group": "cosmos-2251-debris", "lat": 24.64502367708788, "lon": -127.17872679752571, "alt_km": 762.4521959337335, "timestamp": "2025-12-21T16:47:55.132565+00:00", "meta": {"OBJECT_NAME": "COSMOS 2251 DEB", "OBJECT_ID": "1993-036JT", "EPOCH": "2025-12-20T06:34:57.855072", "MEAN_MOTION": 14.20580968, "ECCENTRICITY": 0.01237601, "INCLINATION": 74.0586, "RA_OF_ASC_NODE": 62.9046, "ARG_OF_PERICENTER": 108.7592, "MEAN_ANOMALY": 316.3034, "EPHEMERIS_TYPE": 0, "CLASSIFICATION_TYPE": "U", "NORAD_CAT_ID": 34056, "ELEMENT_SET_NO": 999, "REV_AT_EPOCH": 86518, "BSTAR": 0.0004934221, "MEAN_MOTION_DOT": 1.122e-05, "MEAN_MOTION_DDOT": 0}, "tle": {"line1": "1 34056U 93036JT  25354.27428073  .00001122  00000+0  49342-3 0  9991", "line2": "2 34056  74.0586  62.9046 0123760 108.7592 316.3034 14.20580968865189"}}, "geometry": {"type": "Point", "coordinates": [-127.17872679752571, 24.64502367708788]}}]}